ONEWEB-0033             
1 45142U 20008M   25288.70883432 -.00000326  00000+0 -96939-3 0  9997
2 45142  87.8755  85.0271 0001706  97.3341 262.7980 13.10374453276192
ONEWEB-0035             
1 45143U 20008N   25288.73956422  .00000618  00000+0  17340-2 0  9991
2 45143  87.8748  85.0222 0001730  96.5748 263.5576 13.10371503275923
ONEWEB-0036             
1 45144U 20008P   25288.72960320  .00000630  00000+0  17690-2 0  9995
2 45144  87.8762  84.9766 0001459  83.4165 276.7128 13.10374764276356
ONEWEB-0038             
1 45145U 20008Q   25289.09551669  .00000027  00000+0  40889-4 0  9997
2 45145  87.8824  69.6717 0001786 158.1446 201.9759 13.11416238278331
ONEWEB-0039             
1 45146U 20008R   25288.86488169 -.00000161  00000+0 -49663-3 0  9995
2 45146  87.8762  84.9653 0001053  85.7004 274.4244 13.10376745276164
ONEWEB-0040             
1 45147U 20008S   25288.70551604 -.00000413  00000+0 -12203-2 0  9993
2 45147  87.8755  85.0267 0001546  93.2874 266.8430 13.10374391275847
ONEWEB-0043             
1 45149U 20008U   25288.70716625 -.00000572  00000+0 -16752-2 0  9990
2 45149  87.8752  85.0081 0001336  78.4438 281.6840 13.10375188276169
ONEWEB-0044             
1 45150U 20008V   25288.88813076  .00000684  00000+0  19226-2 0  9990
2 45150  87.8748  84.9629 0001446  85.2808 274.8485 13.10372449276482
